YOTSUBA-KULOVER         
1 65941U 98067XN  26060.28636681  .00179487  00000+0  10659-2 0  9997
2 65941  51.6221 100.7601 0006136  19.3335 340.7896 15.76916853 22179
BOTAN                   
1 65942U 98067XP  26060.26698525  .01976643  36765-2  17432-2 0  9997
2 65942  51.6093  93.7365 0006928  38.7411 321.4100 16.13166926 22268
E-KAGAKU-1              
1 65943U 98067XQ  26060.28928357  .00172372  00000+0  10355-2 0  9992
2 65943  51.6243 100.7949 0006351  27.5509 332.5827 15.76679005 22171
HRC MONOBLOCK CAMERA    
1 66052U 98067XR  26060.31756139  .00051227  00000+0  59597-3 0  9992
2 66052  51.6278 107.7547 0003265  56.1557 303.9747 15.61187483 21084
HTV-X1                  
1 66174U 25241A   26060.18795710  .00009357  00000+0  18155-3 0  9996
2 66174  51.6323 114.3864 0008292 144.7575 215.3963 15.48374594554471
SZ-21 MODULE            
1 66515U 25246C   26059.58432385  .00035117  00000+0  31267-3 0  9990
2 66515  41.4737 259.3806 0001436 285.8647  74.2036 15.67747367 16640
SHENZHOU-22             
1 66645U 25272A   26060.33147196  .00025666  00000+0  30813-3 0  9995
2 66645  41.4653 259.0034 0006432 220.8095 139.2263 15.60273680267522
SOYUZ-MS 28             
1 66664U 25275A   26060.18795710  .00009357  00000+0  18155-3 0  9997
2 66664  51.6323 114.3864 0008292 144.7575 215.3963 15.48374594554521
DUPLEX                  
1 66906U 98067XS  26060.30063076  .00032803  00000+0  47452-3 0  9996
2 66906  51.6291 111.3933 0001962  86.2906 273.8310 15.55599395 13827
ISS OBJECT XT           
1 66907U 98067XT  26060.16893205  .00132484  00000+0  12318-2 0  9994
2 66907  51.6254 109.0047 0004436  28.9077 331.2164 15.66463408 13843
ISS OBJECT XU           
1 66908U 98067XU  26060.16767170  .00132413  00000+0  12275-2 0  9990
2 66908  51.6251 108.9935 0004578  31.2531 328.8736 15.66535330 13845
SILVERSAT               
1 66909U 98067XV  26060.31012551  .00169351  00000+0  14204-2 0  9999
2 66909  51.6257 107.6944 0005364  27.9121 332.2162 15.68859534 13871
