CCSDS_OMM_VERS = 2.0
CREATION_DATE  = 
ORIGINATOR     = 

OBJECT_NAME    = YOTSUBA-KULOVER
OBJECT_ID      = 1998-067XN
CENTER_NAME    = EARTH
REF_FRAME      = TEME
TIME_SYSTEM    = UTC
MEAN_ELEMENT_THEORY = SGP/SGP4

EPOCH          = 2026-03-01T06:52:22.092384
MEAN_MOTION    = 15.76916853
ECCENTRICITY   = .00061367
INCLINATION    = 51.6221
RA_OF_ASC_NODE = 100.7601
ARG_OF_PERICENTER = 19.3335
MEAN_ANOMALY   = 340.7896

EPHEMERIS_TYPE = 0
CLASSIFICATION_TYPE = U
NORAD_CAT_ID   = 65941
ELEMENT_SET_NO = 999
REV_AT_EPOCH   = 2217
BSTAR          = .10659491E-2
MEAN_MOTION_DOT = .179487E-2
MEAN_MOTION_DDOT = 0

CCSDS_OMM_VERS = 2.0
CREATION_DATE  = 
ORIGINATOR     = 

OBJECT_NAME    = BOTAN
OBJECT_ID      = 1998-067XP
CENTER_NAME    = EARTH
REF_FRAME      = TEME
TIME_SYSTEM    = UTC
MEAN_ELEMENT_THEORY = SGP/SGP4

EPOCH          = 2026-03-01T06:24:27.525600
MEAN_MOTION    = 16.13166926
ECCENTRICITY   = .00069284
INCLINATION    = 51.6093
RA_OF_ASC_NODE = 93.7365
ARG_OF_PERICENTER = 38.7411
MEAN_ANOMALY   = 321.4100

EPHEMERIS_TYPE = 0
CLASSIFICATION_TYPE = U
NORAD_CAT_ID   = 65942
ELEMENT_SET_NO = 999
REV_AT_EPOCH   = 2226
BSTAR          = .17431921E-2
MEAN_MOTION_DOT = .1976643E-1
MEAN_MOTION_DDOT = .36765393E-2

CCSDS_OMM_VERS = 2.0
CREATION_DATE  = 
ORIGINATOR     = 

OBJECT_NAME    = E-KAGAKU-1
OBJECT_ID      = 1998-067XQ
CENTER_NAME    = EARTH
REF_FRAME      = TEME
TIME_SYSTEM    = UTC
MEAN_ELEMENT_THEORY = SGP/SGP4

EPOCH          = 2026-03-01T06:56:34.100448
MEAN_MOTION    = 15.76679005
ECCENTRICITY   = .00063514
INCLINATION    = 51.6243
RA_OF_ASC_NODE = 100.7949
ARG_OF_PERICENTER = 27.5509
MEAN_ANOMALY   = 332.5827

EPHEMERIS_TYPE = 0
CLASSIFICATION_TYPE = U
NORAD_CAT_ID   = 65943
ELEMENT_SET_NO = 999
REV_AT_EPOCH   = 2217
BSTAR          = .10354535E-2
MEAN_MOTION_DOT = .172372E-2
MEAN_MOTION_DDOT = 0

CCSDS_OMM_VERS = 2.0
CREATION_DATE  = 
ORIGINATOR     = 

OBJECT_NAME    = HRC MONOBLOCK CAMERA
OBJECT_ID      = 1998-067XR
CENTER_NAME    = EARTH
REF_FRAME      = TEME
TIME_SYSTEM    = UTC
MEAN_ELEMENT_THEORY = SGP/SGP4

EPOCH          = 2026-03-01T07:37:17.304096
MEAN_MOTION    = 15.61187483
ECCENTRICITY   = .00032651
INCLINATION    = 51.6278
RA_OF_ASC_NODE = 107.7547
ARG_OF_PERICENTER = 56.1557
MEAN_ANOMALY   = 303.9747

EPHEMERIS_TYPE = 0
CLASSIFICATION_TYPE = U
NORAD_CAT_ID   = 66052
ELEMENT_SET_NO = 999
REV_AT_EPOCH   = 2108
BSTAR          = .59596837E-3
MEAN_MOTION_DOT = .51227E-3
MEAN_MOTION_DDOT = 0

CCSDS_OMM_VERS = 2.0
CREATION_DATE  = 
ORIGINATOR     = 

OBJECT_NAME    = HTV-X1
OBJECT_ID      = 2025-241A
CENTER_NAME    = EARTH
REF_FRAME      = TEME
TIME_SYSTEM    = UTC
MEAN_ELEMENT_THEORY = SGP/SGP4

EPOCH          = 2026-03-01T04:30:39.493440
MEAN_MOTION    = 15.48374594
ECCENTRICITY   = .00082926
INCLINATION    = 51.6323
RA_OF_ASC_NODE = 114.3864
ARG_OF_PERICENTER = 144.7575
MEAN_ANOMALY   = 215.3963

EPHEMERIS_TYPE = 0
CLASSIFICATION_TYPE = U
NORAD_CAT_ID   = 66174
ELEMENT_SET_NO = 999
REV_AT_EPOCH   = 55447
BSTAR          = .18154647E-3
MEAN_MOTION_DOT = .9357E-4
MEAN_MOTION_DDOT = 0

CCSDS_OMM_VERS = 2.0
CREATION_DATE  = 
ORIGINATOR     = 

OBJECT_NAME    = SZ-21 MODULE
OBJECT_ID      = 2025-246C
CENTER_NAME    = EARTH
REF_FRAME      = TEME
TIME_SYSTEM    = UTC
MEAN_ELEMENT_THEORY = SGP/SGP4

EPOCH          = 2026-02-28T14:01:25.580640
MEAN_MOTION    = 15.67747367
ECCENTRICITY   = .0001436
INCLINATION    = 41.4737
RA_OF_ASC_NODE = 259.3806
ARG_OF_PERICENTER = 285.8647
MEAN_ANOMALY   = 74.2036

EPHEMERIS_TYPE = 0
CLASSIFICATION_TYPE = U
NORAD_CAT_ID   = 66515
ELEMENT_SET_NO = 999
REV_AT_EPOCH   = 1664
BSTAR          = .31267443E-3
MEAN_MOTION_DOT = .35117E-3
MEAN_MOTION_DDOT = 0

CCSDS_OMM_VERS = 2.0
CREATION_DATE  = 
ORIGINATOR     = 

OBJECT_NAME    = SHENZHOU-22
OBJECT_ID      = 2025-272A
CENTER_NAME    = EARTH
REF_FRAME      = TEME
TIME_SYSTEM    = UTC
MEAN_ELEMENT_THEORY = SGP/SGP4

EPOCH          = 2026-03-01T07:57:19.177344
MEAN_MOTION    = 15.60273680
ECCENTRICITY   = .00064323
INCLINATION    = 41.4653
RA_OF_ASC_NODE = 259.0034
ARG_OF_PERICENTER = 220.8095
MEAN_ANOMALY   = 139.2263

EPHEMERIS_TYPE = 0
CLASSIFICATION_TYPE = U
NORAD_CAT_ID   = 66645
ELEMENT_SET_NO = 999
REV_AT_EPOCH   = 26752
BSTAR          = .30812686E-3
MEAN_MOTION_DOT = .25666E-3
MEAN_MOTION_DDOT = 0

CCSDS_OMM_VERS = 2.0
CREATION_DATE  = 
ORIGINATOR     = 

OBJECT_NAME    = SOYUZ-MS 28
OBJECT_ID      = 2025-275A
CENTER_NAME    = EARTH
REF_FRAME      = TEME
TIME_SYSTEM    = UTC
MEAN_ELEMENT_THEORY = SGP/SGP4

EPOCH          = 2026-03-01T04:30:39.493440
MEAN_MOTION    = 15.48374594
ECCENTRICITY   = .00082926
INCLINATION    = 51.6323
RA_OF_ASC_NODE = 114.3864
ARG_OF_PERICENTER = 144.7575
MEAN_ANOMALY   = 215.3963

EPHEMERIS_TYPE = 0
CLASSIFICATION_TYPE = U
NORAD_CAT_ID   = 66664
ELEMENT_SET_NO = 999
REV_AT_EPOCH   = 55452
BSTAR          = .18154647E-3
MEAN_MOTION_DOT = .9357E-4
MEAN_MOTION_DDOT = 0

CCSDS_OMM_VERS = 2.0
CREATION_DATE  = 
ORIGINATOR     = 

OBJECT_NAME    = DUPLEX
OBJECT_ID      = 1998-067XS
CENTER_NAME    = EARTH
REF_FRAME      = TEME
TIME_SYSTEM    = UTC
MEAN_ELEMENT_THEORY = SGP/SGP4

EPOCH          = 2026-03-01T07:12:54.497664
MEAN_MOTION    = 15.55599395
ECCENTRICITY   = .00019628
INCLINATION    = 51.6291
RA_OF_ASC_NODE = 111.3933
ARG_OF_PERICENTER = 86.2906
MEAN_ANOMALY   = 273.8310

EPHEMERIS_TYPE = 0
CLASSIFICATION_TYPE = U
NORAD_CAT_ID   = 66906
ELEMENT_SET_NO = 999
REV_AT_EPOCH   = 1382
BSTAR          = .47451812E-3
MEAN_MOTION_DOT = .32803E-3
MEAN_MOTION_DDOT = 0

CCSDS_OMM_VERS = 2.0
CREATION_DATE  = 
ORIGINATOR     = 

OBJECT_NAME    = ISS OBJECT XT
OBJECT_ID      = 1998-067XT
CENTER_NAME    = EARTH
REF_FRAME      = TEME
TIME_SYSTEM    = UTC
MEAN_ELEMENT_THEORY = SGP/SGP4

EPOCH          = 2026-03-01T04:03:15.729120
MEAN_MOTION    = 15.66463408
ECCENTRICITY   = .00044363
INCLINATION    = 51.6254
RA_OF_ASC_NODE = 109.0047
ARG_OF_PERICENTER = 28.9077
MEAN_ANOMALY   = 331.2164

EPHEMERIS_TYPE = 0
CLASSIFICATION_TYPE = U
NORAD_CAT_ID   = 66907
ELEMENT_SET_NO = 999
REV_AT_EPOCH   = 1384
BSTAR          = .12317948E-2
MEAN_MOTION_DOT = .132484E-2
MEAN_MOTION_DDOT = 0

CCSDS_OMM_VERS = 2.0
CREATION_DATE  = 
ORIGINATOR     = 

OBJECT_NAME    = ISS OBJECT XU
OBJECT_ID      = 1998-067XU
CENTER_NAME    = EARTH
REF_FRAME      = TEME
TIME_SYSTEM    = UTC
MEAN_ELEMENT_THEORY = SGP/SGP4

EPOCH          = 2026-03-01T04:01:26.834880
MEAN_MOTION    = 15.66535330
ECCENTRICITY   = .00045787
INCLINATION    = 51.6251
RA_OF_ASC_NODE = 108.9935
ARG_OF_PERICENTER = 31.2531
MEAN_ANOMALY   = 328.8736

EPHEMERIS_TYPE = 0
CLASSIFICATION_TYPE = U
NORAD_CAT_ID   = 66908
ELEMENT_SET_NO = 999
REV_AT_EPOCH   = 1384
BSTAR          = .12275496E-2
MEAN_MOTION_DOT = .132413E-2
MEAN_MOTION_DDOT = 0

CCSDS_OMM_VERS = 2.0
CREATION_DATE  = 
ORIGINATOR     = 

OBJECT_NAME    = SILVERSAT
OBJECT_ID      = 1998-067XV
CENTER_NAME    = EARTH
REF_FRAME      = TEME
TIME_SYSTEM    = UTC
MEAN_ELEMENT_THEORY = SGP/SGP4

EPOCH          = 2026-03-01T07:26:34.844064
MEAN_MOTION    = 15.68859534
ECCENTRICITY   = .00053642
INCLINATION    = 51.6257
RA_OF_ASC_NODE = 107.6944
ARG_OF_PERICENTER = 27.9121
MEAN_ANOMALY   = 332.2162

EPHEMERIS_TYPE = 0
CLASSIFICATION_TYPE = U
NORAD_CAT_ID   = 66909
ELEMENT_SET_NO = 999
REV_AT_EPOCH   = 1387
BSTAR          = .14203884E-2
MEAN_MOTION_DOT = .169351E-2
MEAN_MOTION_DDOT = 0

